[{"OBJECT_NAME":"MICE-1","OBJECT_ID":"2025-276U","EPOCH":"2026-03-09T18:17:39.683040","MEAN_MOTION":15.18401277,"ECCENTRICITY":0.00050387,"INCLINATION":97.4336,"RA_OF_ASC_NODE":144.0716,"ARG_OF_PERICENTER":357.2456,"MEAN_ANOMALY":2.875,"EPHEMERIS_TYPE":0,"CLASSIFICATION_TYPE":"U","NORAD_CAT_ID":66684,"ELEMENT_SET_NO":999,"REV_AT_EPOCH":1532,"BSTAR":0.00026807405,"MEAN_MOTION_DOT":5.448e-5,"MEAN_MOTION_DDOT":0},{"OBJECT_NAME":"OKEAN-2","OBJECT_ID":"1990-018A","EPOCH":"2026-03-09T23:36:10.183680","MEAN_MOTION":15.15649196,"ECCENTRICITY":0.00049727,"INCLINATION":82.5017,"RA_OF_ASC_NODE":331.5686,"ARG_OF_PERICENTER":303.4328,"MEAN_ANOMALY":67.9927,"EPHEMERIS_TYPE":0,"CLASSIFICATION_TYPE":"U","NORAD_CAT_ID":20510,"ELEMENT_SET_NO":999,"REV_AT_EPOCH":93903,"BSTAR":0.00028442133,"MEAN_MOTION_DOT":5.437e-5,"MEAN_MOTION_DDOT":0}]
